ONEWEB-0446             
1 51640U 22012U   25084.79947334  .00000554  00000+0  15519-2 0  9994
2 51640  87.8828 125.6777 0001730  97.3387 262.7937 13.10371163150606
ONEWEB-0448             
1 51641U 22012V   25084.80444949  .00000295  00000+0  80893-3 0  9991
2 51641  87.8827 125.6766 0002081  98.8740 261.2623 13.10370381150576
ONEWEB-0449             
1 51642U 22012W   25084.80942573  .00000077  00000+0  18441-3 0  9996
2 51642  87.8822 125.6552 0002078 104.8509 255.2849 13.10369155150583
ONEWEB-0451             
1 51643U 22012X   25084.95763753  .00000024  00000+0  27464-4 0  9992
2 51643  87.8998  95.1182 0001980  97.2753 262.8604 13.17651115154635
ONEWEB-0452             
1 51644U 22012Y   25084.72814572  .00000054  00000+0  10667-3 0  9993
2 51644  87.9004  95.2213 0002220  97.6670 262.4714 13.17651079154616
ONEWEB-0456             
1 51646U 22012AA  25085.50659445 -.00000303  00000+0 -90503-3 0  9994
2 51646  87.8817 125.4785 0002029  91.2357 268.9003 13.10369079152000
ONEWEB-0457             
1 51647U 22012AB  25084.87251310  .00000583  00000+0  16342-2 0  9999
2 51647  87.8827 125.6520 0001900 108.4895 251.6439 13.10371740150633
ONEWEB-0458             
1 51648U 22012AC  25085.12315717 -.00000256  00000+0 -76847-3 0  9997
2 51648  87.8809 125.5957 0002092  97.1756 262.9609 13.10371248151920
